ONEWEB-0253             
1 48971U 21060E   23059.14141495  .00000073  00000+0  15639-3 0  9992
2 48971  87.8988 108.7210 0001426  99.2923 260.8369 13.16597084 82306
ONEWEB-0253             
1 48971U 21060E   23059.52139925  .00000063  00000+0  13084-3 0  9990
2 48971  87.8987 108.6451 0001431  99.8490 260.2803 13.16597027 81079
ONEWEB-0253             
1 48971U 21060E   23059.82538652  .00000091  00000+0  20392-3 0  9994
2 48971  87.8986 108.5845 0001425 100.6123 259.5169 13.16597074 81114
ONEWEB-0253             
1 48971U 21060E   23060.20537067  .00000051  00000+0  10034-3 0  9995
2 48971  87.8986 108.5087 0001440 100.8153 259.3140 13.16597322 82444
ONEWEB-0253             
1 48971U 21060E   23060.88934239  .00000121  00000+0  28234-3 0  9990
2 48971  87.8985 108.3722 0001465 102.4398 257.6897 13.16596757 81252
ONEWEB-0253             
1 48971U 21060E   23061.57331353  .00000132  00000+0  31261-3 0  9991
2 48971  87.8984 108.2355 0001471 103.4080 256.7215 13.16596888 81347
ONEWEB-0253             
1 48971U 21060E   23061.57331353  .00000132  00000+0  31261-3 0  9991
2 48971  87.8984 108.2355 0001471 103.4080 256.7215 13.16596888 82629
ONEWEB-0253             
1 48971U 21060E   23062.18128820  .00000089  00000+0  19950-3 0  9994
2 48971  87.8982 108.1140 0001491 103.5811 256.5486 13.16596745 81420
ONEWEB-0253             
1 48971U 21060E   23062.86525921  .00000060  00000+0  12305-3 0  9998
2 48971  87.8979 107.9773 0001486 103.6364 256.4932 13.16597013 81517
